[
  {
    "OBJECT_NAME": "STARLINK-33906",
    "OBJECT_ID": "25091L",
    "EPOCH": "2025-11-11T03:52:15.517344",
    "MEAN_MOTION": 15.27604024,
    "ECCENTRICITY": 2.36e-05,
    "INCLINATION": 42.9989,
    "RA_OF_ASC_NODE": 2.0184,
    "ARG_OF_PERICENTER": 322.0269,
    "MEAN_ANOMALY": 38.0566,
    "EPHEMERIS_TYPE": 0,
    "CLASSIFICATION_TYPE": "U",
    "NORAD_CAT_ID": 63785,
    "ELEMENT_SET_NO": 999,
    "REV_AT_EPOCH": 3072,
    "BSTAR": 0.0012404,
    "MEAN_MOTION_DOT": 0.00034053,
    "MEAN_MOTION_DDOT": 0.0,
    "TLE_LINE1": "1 63785U 25091L   25315.16129071  .00034053  00000+0  12404-2 0  9996",
    "TLE_LINE2": "2 63785  42.9989   2.0184 0000236 322.0269  38.0566 15.27604024 30723",
    "COMMENT": "Grouped by shell and plane from TLE"
  },
  {
    "OBJECT_NAME": "STARLINK-33923",
    "OBJECT_ID": "25091M",
    "EPOCH": "2025-11-11T03:50:24.367200",
    "MEAN_MOTION": 15.27600225,
    "ECCENTRICITY": 5.35e-05,
    "INCLINATION": 42.9988,
    "RA_OF_ASC_NODE": 2.0088,
    "ARG_OF_PERICENTER": 285.9027,
    "MEAN_ANOMALY": 74.1766,
    "EPHEMERIS_TYPE": 0,
    "CLASSIFICATION_TYPE": "U",
    "NORAD_CAT_ID": 63786,
    "ELEMENT_SET_NO": 999,
    "REV_AT_EPOCH": 3072,
    "BSTAR": 0.0012547,
    "MEAN_MOTION_DOT": 0.00034446,
    "MEAN_MOTION_DDOT": 0.0,
    "TLE_LINE1": "1 63786U 25091M   25315.16000425  .00034446  00000+0  12547-2 0  9992",
    "TLE_LINE2": "2 63786  42.9988   2.0088 0000535 285.9027  74.1766 15.27600225 30729",
    "COMMENT": "Grouped by shell and plane from TLE"
  },
  {
    "OBJECT_NAME": "STARLINK-33947",
    "OBJECT_ID": "25091N",
    "EPOCH": "2025-11-11T04:21:51.698304",
    "MEAN_MOTION": 15.27611332,
    "ECCENTRICITY": 0.0001253,
    "INCLINATION": 43.0041,
    "RA_OF_ASC_NODE": 2.1692,
    "ARG_OF_PERICENTER": 239.9809,
    "MEAN_ANOMALY": 120.0918,
    "EPHEMERIS_TYPE": 0,
    "CLASSIFICATION_TYPE": "U",
    "NORAD_CAT_ID": 63787,
    "ELEMENT_SET_NO": 999,
    "REV_AT_EPOCH": 3077,
    "BSTAR": 0.0017380000000000002,
    "MEAN_MOTION_DOT": 0.00047921,
    "MEAN_MOTION_DDOT": 0.0,
    "TLE_LINE1": "1 63787U 25091N   25315.18184836  .00047921  00000+0  17380-2 0  9996",
    "TLE_LINE2": "2 63787  43.0041   2.1692 0001253 239.9809 120.0918 15.27611332 30775",
    "COMMENT": "Grouped by shell and plane from TLE"
  },
  {
    "OBJECT_NAME": "STARLINK-33882",
    "OBJECT_ID": "25091P",
    "EPOCH": "2025-11-11T03:39:18.134208",
    "MEAN_MOTION": 15.27612534,
    "ECCENTRICITY": 5.95e-05,
    "INCLINATION": 42.9989,
    "RA_OF_ASC_NODE": 1.9467,
    "ARG_OF_PERICENTER": 206.2212,
    "MEAN_ANOMALY": 153.8609,
    "EPHEMERIS_TYPE": 0,
    "CLASSIFICATION_TYPE": "U",
    "NORAD_CAT_ID": 63788,
    "ELEMENT_SET_NO": 999,
    "REV_AT_EPOCH": 3076,
    "BSTAR": 0.0012919000000000001,
    "MEAN_MOTION_DOT": 0.00035494,
    "MEAN_MOTION_DDOT": 0.0,
    "TLE_LINE1": "1 63788U 25091P   25315.15229322  .00035494  00000+0  12919-2 0  9999",
    "TLE_LINE2": "2 63788  42.9989   1.9467 0000595 206.2212 153.8609 15.27612534 30760",
    "COMMENT": "Grouped by shell and plane from TLE"
  },
  {
    "OBJECT_NAME": "STARLINK-33875",
    "OBJECT_ID": "25091Q",
    "EPOCH": "2025-11-11T03:22:39.059040",
    "MEAN_MOTION": 15.27605034,
    "ECCENTRICITY": 8.64e-05,
    "INCLINATION": 42.9983,
    "RA_OF_ASC_NODE": 1.858,
    "ARG_OF_PERICENTER": 252.4106,
    "MEAN_ANOMALY": 107.6652,
    "EPHEMERIS_TYPE": 0,
    "CLASSIFICATION_TYPE": "U",
    "NORAD_CAT_ID": 63789,
    "ELEMENT_SET_NO": 999,
    "REV_AT_EPOCH": 3077,
    "BSTAR": 0.0017540000000000001,
    "MEAN_MOTION_DOT": 0.00048357,
    "MEAN_MOTION_DDOT": 0.0,
    "TLE_LINE1": "1 63789U 25091Q   25315.14072985  .00048357  00000+0  17540-2 0  9997",
    "TLE_LINE2": "2 63789  42.9983   1.8580 0000864 252.4106 107.6652 15.27605034 30777",
    "COMMENT": "Grouped by shell and plane from TLE"
  },
  {
    "OBJECT_NAME": "STARLINK-33869",
    "OBJECT_ID": "25091R",
    "EPOCH": "2025-11-11T03:13:23.909664",
    "MEAN_MOTION": 15.27611934,
    "ECCENTRICITY": 1.33e-05,
    "INCLINATION": 42.9992,
    "RA_OF_ASC_NODE": 1.8103,
    "ARG_OF_PERICENTER": 247.5022,
    "MEAN_ANOMALY": 112.5816,
    "EPHEMERIS_TYPE": 0,
    "CLASSIFICATION_TYPE": "U",
    "NORAD_CAT_ID": 63790,
    "ELEMENT_SET_NO": 999,
    "REV_AT_EPOCH": 3072,
    "BSTAR": 0.0017976000000000001,
    "MEAN_MOTION_DOT": 0.00049585,
    "MEAN_MOTION_DDOT": 0.0,
    "TLE_LINE1": "1 63790U 25091R   25315.13430451  .00049585  00000+0  17976-2 0  9991",
    "TLE_LINE2": "2 63790  42.9992   1.8103 0000133 247.5022 112.5816 15.27611934 30729",
    "COMMENT": "Grouped by shell and plane from TLE"
  },
  {
    "OBJECT_NAME": "STARLINK-33935",
    "OBJECT_ID": "25091S",
    "EPOCH": "2025-11-11T04:16:18.729120",
    "MEAN_MOTION": 15.2761319,
    "ECCENTRICITY": 0.00027,
    "INCLINATION": 43.0052,
    "RA_OF_ASC_NODE": 2.1436,
    "ARG_OF_PERICENTER": 284.7071,
    "MEAN_ANOMALY": 75.3481,
    "EPHEMERIS_TYPE": 0,
    "CLASSIFICATION_TYPE": "U",
    "NORAD_CAT_ID": 63791,
    "ELEMENT_SET_NO": 999,
    "REV_AT_EPOCH": 3088,
    "BSTAR": 0.0016049,
    "MEAN_MOTION_DOT": 0.00044213,
    "MEAN_MOTION_DDOT": 0.0,
    "TLE_LINE1": "1 63791U 25091S   25315.17799455  .00044213  00000+0  16049-2 0  9991",
    "TLE_LINE2": "2 63791  43.0052   2.1436 0002700 284.7071  75.3481 15.27613190 30888",
    "COMMENT": "Grouped by shell and plane from TLE"
  },
  {
    "OBJECT_NAME": "STARLINK-33916",
    "OBJECT_ID": "25091T",
    "EPOCH": "2025-11-11T04:10:45.427296",
    "MEAN_MOTION": 15.27588442,
    "ECCENTRICITY": 6.12e-05,
    "INCLINATION": 43.0017,
    "RA_OF_ASC_NODE": 2.1119,
    "ARG_OF_PERICENTER": 257.1027,
    "MEAN_ANOMALY": 102.9756,
    "EPHEMERIS_TYPE": 0,
    "CLASSIFICATION_TYPE": "U",
    "NORAD_CAT_ID": 63792,
    "ELEMENT_SET_NO": 999,
    "REV_AT_EPOCH": 3077,
    "BSTAR": 0.0006717499999999999,
    "MEAN_MOTION_DOT": 0.00018273,
    "MEAN_MOTION_DDOT": 0.0,
    "TLE_LINE1": "1 63792U 25091T   25315.17413689  .00018273  00000+0  67175-3 0  9998",
    "TLE_LINE2": "2 63792  43.0017   2.1119 0000612 257.1027 102.9756 15.27588442 30774",
    "COMMENT": "Grouped by shell and plane from TLE"
  },
  {
    "OBJECT_NAME": "STARLINK-33925",
    "OBJECT_ID": "25091U",
    "EPOCH": "2025-11-11T03:18:57.748032",
    "MEAN_MOTION": 15.2762012,
    "ECCENTRICITY": 0.0001011,
    "INCLINATION": 42.9996,
    "RA_OF_ASC_NODE": 1.8399,
    "ARG_OF_PERICENTER": 280.7553,
    "MEAN_ANOMALY": 79.3185,
    "EPHEMERIS_TYPE": 0,
    "CLASSIFICATION_TYPE": "U",
    "NORAD_CAT_ID": 63793,
    "ELEMENT_SET_NO": 999,
    "REV_AT_EPOCH": 3088,
    "BSTAR": 0.0014767,
    "MEAN_MOTION_DOT": 0.00040647,
    "MEAN_MOTION_DDOT": 0.0,
    "TLE_LINE1": "1 63793U 25091U   25315.13816838  .00040647  00000+0  14767-2 0  9996",
    "TLE_LINE2": "2 63793  42.9996   1.8399 0001011 280.7553  79.3185 15.27620120 30880",
    "COMMENT": "Grouped by shell and plane from TLE"
  },
  {
    "OBJECT_NAME": "STARLINK-33870",
    "OBJECT_ID": "25091V",
    "EPOCH": "2025-11-11T04:43:51.329568",
    "MEAN_MOTION": 15.27622294,
    "ECCENTRICITY": 0.0003386,
    "INCLINATION": 43.0036,
    "RA_OF_ASC_NODE": 1.4262,
    "ARG_OF_PERICENTER": 288.0572,
    "MEAN_ANOMALY": 71.991,
    "EPHEMERIS_TYPE": 0,
    "CLASSIFICATION_TYPE": "U",
    "NORAD_CAT_ID": 63794,
    "ELEMENT_SET_NO": 999,
    "REV_AT_EPOCH": 3078,
    "BSTAR": 0.001843,
    "MEAN_MOTION_DOT": 0.00050873,
    "MEAN_MOTION_DDOT": 0.0,
    "TLE_LINE1": "1 63794U 25091V   25315.19712187  .00050873  00000+0  18430-2 0  9998",
    "TLE_LINE2": "2 63794  43.0036   1.4262 0003386 288.0572  71.9910 15.27622294 30789",
    "COMMENT": "Grouped by shell and plane from TLE"
  },
  {
    "OBJECT_NAME": "STARLINK-33867",
    "OBJECT_ID": "25091W",
    "EPOCH": "2025-11-11T03:59:39.461280",
    "MEAN_MOTION": 15.27568478,
    "ECCENTRICITY": 9.88e-05,
    "INCLINATION": 43.0014,
    "RA_OF_ASC_NODE": 2.0552,
    "ARG_OF_PERICENTER": 265.1265,
    "MEAN_ANOMALY": 94.9474,
    "EPHEMERIS_TYPE": 0,
    "CLASSIFICATION_TYPE": "U",
    "NORAD_CAT_ID": 63795,
    "ELEMENT_SET_NO": 999,
    "REV_AT_EPOCH": 3077,
    "BSTAR": 0.001963,
    "MEAN_MOTION_DOT": 0.00054133,
    "MEAN_MOTION_DDOT": 0.0,
    "TLE_LINE1": "1 63795U 25091W   25315.16642895  .00054133  00000+0  19630-2 0  9990",
    "TLE_LINE2": "2 63795  43.0014   2.0552 0000988 265.1265  94.9474 15.27568478 30777",
    "COMMENT": "Grouped by shell and plane from TLE"
  },
  {
    "OBJECT_NAME": "STARLINK-33918",
    "OBJECT_ID": "25091X",
    "EPOCH": "2025-11-11T04:01:30.551808",
    "MEAN_MOTION": 15.27619595,
    "ECCENTRICITY": 0.0003144,
    "INCLINATION": 43.002,
    "RA_OF_ASC_NODE": 2.0661,
    "ARG_OF_PERICENTER": 297.7697,
    "MEAN_ANOMALY": 62.2836,
    "EPHEMERIS_TYPE": 0,
    "CLASSIFICATION_TYPE": "U",
    "NORAD_CAT_ID": 63796,
    "ELEMENT_SET_NO": 999,
    "REV_AT_EPOCH": 3082,
    "BSTAR": 0.0014287,
    "MEAN_MOTION_DOT": 0.00039313,
    "MEAN_MOTION_DDOT": 0.0,
    "TLE_LINE1": "1 63796U 25091X   25315.16771472  .00039313  00000+0  14287-2 0  9991",
    "TLE_LINE2": "2 63796  43.0020   2.0661 0003144 297.7697  62.2836 15.27619595 30826",
    "COMMENT": "Grouped by shell and plane from TLE"
  },
  {
    "OBJECT_NAME": "STARLINK-33712",
    "OBJECT_ID": "25091Y",
    "EPOCH": "2025-11-11T05:27:33.609312",
    "MEAN_MOTION": 15.27630892,
    "ECCENTRICITY": 0.0001263,
    "INCLINATION": 42.9998,
    "RA_OF_ASC_NODE": 5.1736,
    "ARG_OF_PERICENTER": 253.3406,
    "MEAN_ANOMALY": 106.7307,
    "EPHEMERIS_TYPE": 0,
    "CLASSIFICATION_TYPE": "U",
    "NORAD_CAT_ID": 63797,
    "ELEMENT_SET_NO": 999,
    "REV_AT_EPOCH": 3074,
    "BSTAR": 0.0014047,
    "MEAN_MOTION_DOT": 0.00038656,
    "MEAN_MOTION_DDOT": 0.0,
    "TLE_LINE1": "1 63797U 25091Y   25315.22747233  .00038656  00000+0  14047-2 0  9990",
    "TLE_LINE2": "2 63797  42.9998   5.1736 0001263 253.3406 106.7307 15.27630892 30743",
    "COMMENT": "Grouped by shell and plane from TLE"
  }
]